CCSDS_OMM_VERS = 2.0
CREATION_DATE  = 
ORIGINATOR     = 

OBJECT_NAME    = 2025-274B
OBJECT_ID      = 2025-274B
CENTER_NAME    = EARTH
REF_FRAME      = TEME
TIME_SYSTEM    = UTC
MEAN_ELEMENT_THEORY = SGP/SGP4

EPOCH          = 2025-12-24T18:10:51.621024
MEAN_MOTION    = 14.91882625
ECCENTRICITY   = .0011275
INCLINATION    = 97.7402
RA_OF_ASC_NODE = 285.7287
ARG_OF_PERICENTER = 205.3112
MEAN_ANOMALY   = 154.7556

EPHEMERIS_TYPE = 0
CLASSIFICATION_TYPE = U
NORAD_CAT_ID   = 66651
ELEMENT_SET_NO = 999
REV_AT_EPOCH   = 419
BSTAR          = .44643E-3
MEAN_MOTION_DOT = .4462E-4
MEAN_MOTION_DDOT = 0

CCSDS_OMM_VERS = 2.0
CREATION_DATE  = 
ORIGINATOR     = 

OBJECT_NAME    = 2025-274C
OBJECT_ID      = 2025-274C
CENTER_NAME    = EARTH
REF_FRAME      = TEME
TIME_SYSTEM    = UTC
MEAN_ELEMENT_THEORY = SGP/SGP4

EPOCH          = 2025-12-24T18:07:41.820096
MEAN_MOTION    = 14.91968899
ECCENTRICITY   = .0010824
INCLINATION    = 97.7406
RA_OF_ASC_NODE = 285.7331
ARG_OF_PERICENTER = 212.2787
MEAN_ANOMALY   = 147.7770

EPHEMERIS_TYPE = 0
CLASSIFICATION_TYPE = U
NORAD_CAT_ID   = 66652
ELEMENT_SET_NO = 999
REV_AT_EPOCH   = 419
BSTAR          = .35722E-3
MEAN_MOTION_DOT = .3566E-4
MEAN_MOTION_DDOT = 0

CCSDS_OMM_VERS = 2.0
CREATION_DATE  = 
ORIGINATOR     = 

OBJECT_NAME    = 2025-274D
OBJECT_ID      = 2025-274D
CENTER_NAME    = EARTH
REF_FRAME      = TEME
TIME_SYSTEM    = UTC
MEAN_ELEMENT_THEORY = SGP/SGP4

EPOCH          = 2025-12-24T16:31:01.121952
MEAN_MOTION    = 14.91960276
ECCENTRICITY   = .0011798
INCLINATION    = 97.7404
RA_OF_ASC_NODE = 285.6669
ARG_OF_PERICENTER = 209.0619
MEAN_ANOMALY   = 150.9944

EPHEMERIS_TYPE = 0
CLASSIFICATION_TYPE = U
NORAD_CAT_ID   = 66653
ELEMENT_SET_NO = 999
REV_AT_EPOCH   = 418
BSTAR          = .28251E-3
MEAN_MOTION_DOT = .2808E-4
MEAN_MOTION_DDOT = 0

CCSDS_OMM_VERS = 2.0
CREATION_DATE  = 
ORIGINATOR     = 

OBJECT_NAME    = JACK E
OBJECT_ID      = 2025-274E
CENTER_NAME    = EARTH
REF_FRAME      = TEME
TIME_SYSTEM    = UTC
MEAN_ELEMENT_THEORY = SGP/SGP4

EPOCH          = 2025-12-24T18:02:54.224736
MEAN_MOTION    = 14.92145047
ECCENTRICITY   = .0012343
INCLINATION    = 97.7407
RA_OF_ASC_NODE = 285.7379
ARG_OF_PERICENTER = 210.6916
MEAN_ANOMALY   = 149.3582

EPHEMERIS_TYPE = 0
CLASSIFICATION_TYPE = U
NORAD_CAT_ID   = 66654
ELEMENT_SET_NO = 999
REV_AT_EPOCH   = 419
BSTAR          = .32281E-3
MEAN_MOTION_DOT = .3233E-4
MEAN_MOTION_DDOT = 0

CCSDS_OMM_VERS = 2.0
CREATION_DATE  = 
ORIGINATOR     = 

OBJECT_NAME    = 2025-274F
OBJECT_ID      = 2025-274F
CENTER_NAME    = EARTH
REF_FRAME      = TEME
TIME_SYSTEM    = UTC
MEAN_ELEMENT_THEORY = SGP/SGP4

EPOCH          = 2025-12-24T06:56:33.276192
MEAN_MOTION    = 14.91193300
ECCENTRICITY   = .00044335
INCLINATION    = 97.7344
RA_OF_ASC_NODE = 285.2601
ARG_OF_PERICENTER = 344.9357
MEAN_ANOMALY   = 15.1729

EPHEMERIS_TYPE = 0
CLASSIFICATION_TYPE = U
NORAD_CAT_ID   = 66655
ELEMENT_SET_NO = 999
REV_AT_EPOCH   = 412
BSTAR          = .19529297E-4
MEAN_MOTION_DOT = .139E-5
MEAN_MOTION_DDOT = 0

CCSDS_OMM_VERS = 2.0
CREATION_DATE  = 
ORIGINATOR     = 

OBJECT_NAME    = 2025-274G
OBJECT_ID      = 2025-274G
CENTER_NAME    = EARTH
REF_FRAME      = TEME
TIME_SYSTEM    = UTC
MEAN_ELEMENT_THEORY = SGP/SGP4

EPOCH          = 2025-12-24T17:57:48.297024
MEAN_MOTION    = 14.92341607
ECCENTRICITY   = .0012913
INCLINATION    = 97.7403
RA_OF_ASC_NODE = 285.7417
ARG_OF_PERICENTER = 212.4848
MEAN_ANOMALY   = 147.5578

EPHEMERIS_TYPE = 0
CLASSIFICATION_TYPE = U
NORAD_CAT_ID   = 66656
ELEMENT_SET_NO = 999
REV_AT_EPOCH   = 419
BSTAR          = .34128E-3
MEAN_MOTION_DOT = .3438E-4
MEAN_MOTION_DDOT = 0

CCSDS_OMM_VERS = 2.0
CREATION_DATE  = 
ORIGINATOR     = 

OBJECT_NAME    = SPIRONE
OBJECT_ID      = 2025-274H
CENTER_NAME    = EARTH
REF_FRAME      = TEME
TIME_SYSTEM    = UTC
MEAN_ELEMENT_THEORY = SGP/SGP4

EPOCH          = 2025-12-24T17:52:57.459936
MEAN_MOTION    = 14.92519690
ECCENTRICITY   = .0010928
INCLINATION    = 97.7400
RA_OF_ASC_NODE = 285.7453
ARG_OF_PERICENTER = 230.1139
MEAN_ANOMALY   = 129.9120

EPHEMERIS_TYPE = 0
CLASSIFICATION_TYPE = U
NORAD_CAT_ID   = 66657
ELEMENT_SET_NO = 999
REV_AT_EPOCH   = 419
BSTAR          = .33156E-3
MEAN_MOTION_DOT = .3352E-4
MEAN_MOTION_DDOT = 0

CCSDS_OMM_VERS = 2.0
CREATION_DATE  = 
ORIGINATOR     = 

OBJECT_NAME    = 2025-274J
OBJECT_ID      = 2025-274J
CENTER_NAME    = EARTH
REF_FRAME      = TEME
TIME_SYSTEM    = UTC
MEAN_ELEMENT_THEORY = SGP/SGP4

EPOCH          = 2025-12-24T16:11:45.140064
MEAN_MOTION    = 14.92696275
ECCENTRICITY   = .0011455
INCLINATION    = 97.7400
RA_OF_ASC_NODE = 285.6841
ARG_OF_PERICENTER = 233.7745
MEAN_ANOMALY   = 126.2416

EPHEMERIS_TYPE = 0
CLASSIFICATION_TYPE = U
NORAD_CAT_ID   = 66658
ELEMENT_SET_NO = 999
REV_AT_EPOCH   = 418
BSTAR          = .45122E-3
MEAN_MOTION_DOT = .4604E-4
MEAN_MOTION_DDOT = 0

CCSDS_OMM_VERS = 2.0
CREATION_DATE  = 
ORIGINATOR     = 

OBJECT_NAME    = JACK K
OBJECT_ID      = 2025-274K
CENTER_NAME    = EARTH
REF_FRAME      = TEME
TIME_SYSTEM    = UTC
MEAN_ELEMENT_THEORY = SGP/SGP4

EPOCH          = 2025-12-24T06:27:39.283488
MEAN_MOTION    = 14.92869012
ECCENTRICITY   = .00121886
INCLINATION    = 97.7402
RA_OF_ASC_NODE = 285.2934
ARG_OF_PERICENTER = 237.2250
MEAN_ANOMALY   = 122.7795

EPHEMERIS_TYPE = 0
CLASSIFICATION_TYPE = U
NORAD_CAT_ID   = 66659
ELEMENT_SET_NO = 999
REV_AT_EPOCH   = 412
BSTAR          = .28972435E-3
MEAN_MOTION_DOT = .2949E-4
MEAN_MOTION_DDOT = 0

CCSDS_OMM_VERS = 2.0
CREATION_DATE  = 
ORIGINATOR     = 

OBJECT_NAME    = K-HERO
OBJECT_ID      = 2025-274L
CENTER_NAME    = EARTH
REF_FRAME      = TEME
TIME_SYSTEM    = UTC
MEAN_ELEMENT_THEORY = SGP/SGP4

EPOCH          = 2025-12-24T19:15:43.591968
MEAN_MOTION    = 14.93023583
ECCENTRICITY   = .0012823
INCLINATION    = 97.7403
RA_OF_ASC_NODE = 285.8259
ARG_OF_PERICENTER = 235.9448
MEAN_ANOMALY   = 124.0555

EPHEMERIS_TYPE = 0
CLASSIFICATION_TYPE = U
NORAD_CAT_ID   = 66660
ELEMENT_SET_NO = 999
REV_AT_EPOCH   = 420
BSTAR          = .29021E-3
MEAN_MOTION_DOT = .2966E-4
MEAN_MOTION_DDOT = 0

CCSDS_OMM_VERS = 2.0
CREATION_DATE  = 
ORIGINATOR     = 

OBJECT_NAME    = SNUGLITE-III
OBJECT_ID      = 2025-274M
CENTER_NAME    = EARTH
REF_FRAME      = TEME
TIME_SYSTEM    = UTC
MEAN_ELEMENT_THEORY = SGP/SGP4

EPOCH          = 2025-12-24T15:58:50.925216
MEAN_MOTION    = 14.93154864
ECCENTRICITY   = .0013444
INCLINATION    = 97.7401
RA_OF_ASC_NODE = 285.6966
ARG_OF_PERICENTER = 238.0039
MEAN_ANOMALY   = 121.9874

EPHEMERIS_TYPE = 0
CLASSIFICATION_TYPE = U
NORAD_CAT_ID   = 66661
ELEMENT_SET_NO = 999
REV_AT_EPOCH   = 418
BSTAR          = .25241E-3
MEAN_MOTION_DOT = .2581E-4
MEAN_MOTION_DDOT = 0

CCSDS_OMM_VERS = 2.0
CREATION_DATE  = 
ORIGINATOR     = 

OBJECT_NAME    = 2025-274N
OBJECT_ID      = 2025-274N
CENTER_NAME    = EARTH
REF_FRAME      = TEME
TIME_SYSTEM    = UTC
MEAN_ELEMENT_THEORY = SGP/SGP4

EPOCH          = 2025-12-24T15:57:19.145088
MEAN_MOTION    = 14.93210948
ECCENTRICITY   = .001388
INCLINATION    = 97.7403
RA_OF_ASC_NODE = 285.6984
ARG_OF_PERICENTER = 237.7389
MEAN_ANOMALY   = 122.2486

EPHEMERIS_TYPE = 0
CLASSIFICATION_TYPE = U
NORAD_CAT_ID   = 66662
ELEMENT_SET_NO = 999
REV_AT_EPOCH   = 418
BSTAR          = .26691E-3
MEAN_MOTION_DOT = .2737E-4
MEAN_MOTION_DDOT = 0

