2025-274B               
1 66651U 25274B   25358.75754191  .00004462  00000+0  44643-3 0  9995
2 66651  97.7402 285.7287 0011275 205.3112 154.7556 14.91882625  4197
2025-274C               
1 66652U 25274C   25358.75534514  .00003566  00000+0  35722-3 0  9993
2 66652  97.7406 285.7331 0010824 212.2787 147.7770 14.91968899  4194
2025-274D               
1 66653U 25274D   25358.68820743  .00002808  00000+0  28251-3 0  9995
2 66653  97.7404 285.6669 0011798 209.0619 150.9944 14.91960276  4184
JACK E                  
1 66654U 25274E   25358.75201649  .00003233  00000+0  32281-3 0  9993
2 66654  97.7407 285.7379 0012343 210.6916 149.3582 14.92145047  4195
2025-274F               
1 66655U 25274F   25358.28927403  .00000139  00000+0  19529-4 0  9998
2 66655  97.7344 285.2601 0004433 344.9357  15.1729 14.91193300  4120
2025-274G               
1 66656U 25274G   25358.74847566  .00003438  00000+0  34128-3 0  9997
2 66656  97.7403 285.7417 0012913 212.4848 147.5578 14.92341607  4198
SPIRONE                 
1 66657U 25274H   25358.74510949  .00003352  00000+0  33156-3 0  9995
2 66657  97.7400 285.7453 0010928 230.1139 129.9120 14.92519690  4196
2025-274J               
1 66658U 25274J   25358.67482801  .00004604  00000+0  45122-3 0  9990
2 66658  97.7400 285.6841 0011455 233.7745 126.2416 14.92696275  4187
JACK K                  
1 66659U 25274K   25358.26920467  .00002949  00000+0  28972-3 0  9995
2 66659  97.7402 285.2934 0012188 237.2250 122.7795 14.92869012  4129
K-HERO                  
1 66660U 25274L   25358.80258787  .00002966  00000+0  29021-3 0  9991
2 66660  97.7403 285.8259 0012823 235.9448 124.0555 14.93023583  4202
SNUGLITE-III            
1 66661U 25274M   25358.66586719  .00002581  00000+0  25241-3 0  9998
2 66661  97.7401 285.6966 0013444 238.0039 121.9874 14.93154864  4188
2025-274N               
1 66662U 25274N   25358.66480492  .00002737  00000+0  26691-3 0  9993
2 66662  97.7403 285.6984 0013880 237.7389 122.2486 14.93210948  4188
